GPS BIIR-5  (PRN 22)    
1 26407U 00040A   26197.70188023  .00000040  00000+0  00000+0 0  9999
2 26407  54.8483 213.9898 0120480 302.7594  51.6165  2.00557873190537
GPS BIIR-8  (PRN 16)    
1 27663U 03005A   26197.03840266  .00000044  00000+0  00000+0 0  9992
2 27663  54.8788 213.8224 0148292  53.1718 318.3547  2.00558980171893
GPS BIIR-11 (PRN 19)    
1 28190U 04009A   26196.32288520 -.00000017  00000+0  00000+0 0  9994
2 28190  54.8064 274.5493 0117190 174.3464 193.0921  2.00553679163519
GPS BIIR-13 (PRN 02)    
1 28474U 04045A   26196.65175715 -.00000092  00000+0  00000+0 0  9999
2 28474  55.1179 323.7499 0170187 317.0701 352.9112  2.00557062158997
GPS BIIRM-1 (PRN 17)    
1 28874U 05038A   26197.27840235 -.00000022  00000+0  00000+0 0  9994
2 28874  54.8546 272.0021 0128230 296.4273  70.6506  2.00563624152422
GPS BIIRM-2 (PRN 31)    
1 29486U 06042A   26197.60658375  .00000021  00000+0  00000+0 0  9997
2 29486  54.7129 150.1709 0107228  55.1966  87.8158  2.00568138144980
GPS BIIRM-3 (PRN 12)    
1 29601U 06052A   26197.33656494  .00000042  00000+0  00000+0 0  9990
2 29601  54.9321 212.8507 0084745  90.9961 270.0095  2.00559750143993
GPS BIIRM-4 (PRN 15)    
1 32260U 07047A   26197.64231737 -.00000036  00000+0  00000+0 0  9997
2 32260  54.1169  78.8515 0167837  88.0227 273.9620  2.00553854137400
GPS BIIRM-5 (PRN 29)    
1 32384U 07062A   26197.46263500 -.00000026  00000+0  00000+0 0  9993
2 32384  55.0085 272.9745 0036065 167.5913 190.6856  2.00561660136093
GPS BIIRM-6 (PRN 07)    
1 32711U 08012A   26197.55082668  .00000019  00000+0  00000+0 0  9998
2 32711  54.5002 148.7517 0211689 248.1647 109.5360  2.00573147134342
GPS BIIRM-8 (PRN 05)    
1 35752U 09043A   26197.55459325 -.00000081  00000+0  00000+0 0  9999
2 35752  56.2287  26.2994 0053711  84.4473 285.7660  2.00552658123950
GPS BIIF-1  (PRN 25)    
1 36585U 10022A   26196.37400053  .00000049  00000+0  00000+0 0  9999
2 36585  54.2685 207.4265 0126723  66.1541 291.5416  2.00563746118156
GPS BIIF-3  (PRN 24)    
1 38833U 12053A   26196.23587167  .00000004  00000+0  00000+0 0  9991
2 38833  53.5896 142.4502 0182026  66.2229 295.6325  2.00567906100005
GPS BIIF-4  (PRN 27)    
1 39166U 13023A   26197.59935963 -.00000020  00000+0  00000+0 0  9999
2 39166  54.4817 267.7742 0141386  51.1132 310.2168  2.00563327 96472
GPS BIIF-5  (PRN 30)    
1 39533U 14008A   26196.60401446  .00000011  00000+0  00000+0 0  9995
2 39533  53.6578 148.1607 0084090 231.5482 127.6544  2.00561576 90259
GPS BIIF-6  (PRN 06)    
1 39741U 14026A   26197.37869716 -.00000096  00000+0  00000+0 0  9993
2 39741  56.4825 330.3814 0038146 325.7541  33.9985  2.00558803 89125
GPS BIIF-7  (PRN 09)    
1 40105U 14045A   26197.47040321 -.00000025  00000+0  00000+0 0  9996
2 40105  55.3721  87.2982 0034437 118.3856 242.0173  2.00560343 86662
GPS BIIF-8  (PRN 03)    
1 40294U 14068A   26196.84010089 -.00000072  00000+0  00000+0 0  9990
2 40294  57.0073  29.8518 0067414  72.3241 288.4563  2.00553234 85785
GPS BIIF-9  (PRN 26)    
1 40534U 15013A   26197.48021406  .00000040  00000+0  00000+0 0  9998
2 40534  53.1660 202.9660 0110409  40.3942 320.4327  2.00549572 82411
GPS BIIF-10 (PRN 08)    
1 40730U 15033A   26197.63833514 -.00000018  00000+0  00000+0 0  9992
2 40730  53.9601 265.8709 0115376  30.2943 330.4469  2.00554636 80582
GPS BIIF-11 (PRN 10)    
1 41019U 15062A   26197.19451016 -.00000074  00000+0  00000+0 0  9991
2 41019  56.9790  29.6945 0112905 230.8679 128.1635  2.00566952 78412
GPS BIIF-12 (PRN 32)    
1 41328U 16007A   26197.28580882 -.00000024  00000+0  00000+0 0  9993
2 41328  55.5417  88.3056 0096624 247.6025 111.4248  2.00575348 76424
GPS BIII-1  (PRN 04)    
1 43873U 18109A   26197.74290903 -.00000023  00000+0  00000+0 0  9997
2 43873  55.6996  91.0203 0038616 197.1163  27.2336  2.00562883 55663
GPS BIII-2  (PRN 18)    
1 44506U 19056A   26197.56780707 -.00000098  00000+0  00000+0 0  9991
2 44506  55.6211 329.9748 0063494 198.1806 164.1170  2.00570038 50664
GPS BIII-3  (PRN 23)    
1 45854U 20041A   26197.89158627 -.00000081  00000+0  00000+0 0  9992
2 45854  56.6895  27.7915 0065269 204.6832 328.4901  2.00557825 44639
GPS BIII-4  (PRN 14)    
1 46826U 20078A   26197.68794786  .00000040  00000+0  00000+0 0  9995
2 46826  53.9770 209.5818 0074587 207.8620 155.6550  2.00564972 42107
GPS BIII-5  (PRN 11)    
1 48859U 21054A   26197.17517183 -.00000099  00000+0  00000+0 0  9991
2 48859  55.1590 331.2941 0026479 228.5486 311.0706  2.00566992 37330
GPS BIII-6  (PRN 28)    
1 55268U 23009A   26197.12636435  .00000016  00000+0  00000+0 0  9990
2 55268  55.1242 147.3813 0006259 321.9339 221.1207  2.00569500 25825
GPS BIII-7  (PRN 01)    
1 62339U 24242A   26197.73682020 -.00000101  00000+0  00000+0 0  9991
2 62339  54.8352 332.9832 0017924   4.2762 341.9272  2.00572060 11840
GPS BIII-8  (PRN 21)    
1 64202U 25116A   26197.00456191 -.00000076  00000+0  00000+0 0  9992
2 64202  55.2543  29.9713 0008431 339.3849  21.2010  2.00573669  8457
GPS BIII-9  (PRN 20)    
1 67588U 26017A   26197.11392141 -.00000025  00000+0  00000+0 0  9993
2 67588  55.1067  87.5942 0021564 260.2085  99.6021  2.00570476432193
GPS BIII-10 (PRN 13)    
1 68791U 26087A   26196.46816847  .00000049  00000+0  00000+0 0  9993
2 68791  54.9617 206.6692 0020461 106.0864 353.1427  2.00572628  1406
